IRIDIUM 159             
1 43578U 18061K   24149.68303927  .00000294  00000+0  97827-4 0  9992
2 43578  86.3987   9.9359 0002465  83.9920 276.1557 14.34217228305952
IRIDIUM 180             
1 43922U 19002A   24149.82206803  .00000333  00000+0  11177-3 0  9999
2 43922  86.3940 306.7616 0002175  86.8742 273.2703 14.34219921281585
IRIDIUM 176             
1 43923U 19002B   24149.95098051  .00001311  00000+0  20399-3 0  9991
2 43923  86.6070 306.7307 0002397  88.0682 272.0809 14.72242140289014
IRIDIUM 168             
1 43924U 19002C   24149.88549843  .00000200  00000+0  64494-4 0  9995
2 43924  86.3942 306.7909 0002179  90.7772 269.3673 14.34216981281579
IRIDIUM 173             
1 43925U 19002D   24149.94258122  .00000369  00000+0  12469-3 0  9990
2 43925  86.3940 306.6870 0002214  89.8640 270.2810 14.34218045281563
IRIDIUM 169             
1 43926U 19002E   24150.06702264  .00000135  00000+0  37749-4 0  9997
2 43926  86.4218 338.2605 0001042  18.1708 341.9527 14.38586794282529
IRIDIUM 172             
1 43927U 19002F   24149.93623812  .00000138  00000+0  42260-4 0  9990
2 43927  86.3940 306.6952 0002288  92.2326 267.9132 14.34218232281575
IRIDIUM 175             
1 43928U 19002G   24150.42102515  .00001330  00000+0  20708-3 0  9996
2 43928  86.1493 280.7276 0001901  88.4318 271.7116 14.72238040289076
